OBJECT_NAME,OBJECT_ID,EPOCH,MEAN_MOTION,ECCENTRICITY,INCLINATION,RA_OF_ASC_NODE,ARG_OF_PERICENTER,MEAN_ANOMALY,EPHEMERIS_TYPE,CLASSIFICATION_TYPE,NORAD_CAT_ID,ELEMENT_SET_NO,REV_AT_EPOCH,BSTAR,MEAN_MOTION_DOT,MEAN_MOTION_DDOT
OSCAR 7 (AO-7),1974-089B,2026-06-05T06:04:51.479904,12.53697882,.0012431,101.9901,169.3754,152.3188,270.3033,0,U,7530,999,35902,-.14506E-4,-.49E-6,0
PHASE 3B (AO-10),1983-058B,2026-06-05T17:10:32.210112,2.05872928,.60147622,25.9038,221.4654,112.5116,319.5552,0,U,14129,999,29525,0,-.155E-5,0
UOSAT 2 (UO-11),1984-021B,2026-06-05T21:04:14.932704,14.90755783,.000662,97.8051,122.5796,211.9367,148.1450,0,U,14781,999,25544,.14612E-3,.138E-4,0
LUSAT (LO-19),1990-005G,2026-06-05T21:06:21.828384,14.34119746,.0010588,98.8853,178.3731,236.4292,123.5881,0,U,20442,999,90077,.65389E-4,.136E-5,0
EYESAT A (AO-27),1993-061C,2026-06-05T11:05:53.323872,14.30939100,.00092956,98.6882,223.8798,130.1900,230.0097,0,U,22825,999,70532,.6106223E-4,.116E-5,0
ITAMSAT (IO-26),1993-061D,2026-06-05T02:17:58.436736,14.31365384,.0009997,98.6830,223.4296,116.5147,243.7062,0,U,22826,999,70558,.58344E-4,.11E-5,0
RADIO ROSTO (RS15),1994-085A,2026-06-05T22:35:15.935424,11.27583594,.0155607,64.8186,321.4044,5.9545,354.3184,0,U,23439,999,29463,.44893E-4,-.41E-6,0
JAS-2 (FO-29),1996-046B,2026-06-05T11:33:20.564064,13.53273625,.03506832,98.5250,6.9568,126.7306,236.6586,0,U,24278,999,47158,.4775673E-5,-.28E-6,0
TECHSAT 1B (GO-32),1998-043D,2026-06-05T11:22:58.377792,14.24426083,.00004056,99.0065,148.9377,200.1436,159.9726,0,U,25397,999,44966,.51301803E-4,.72E-6,0
ISS (ZARYA),1998-067A,2026-06-05T21:39:05.671008,15.49626092,.0007026,51.6331,355.9600,137.6502,222.5030,0,U,25544,999,57000,.18849E-3,.10181E-3,0
PCSAT (NO-44),2001-043C,2026-06-05T18:35:16.942560,14.31951978,.00061148,67.0513,273.7893,264.0839,95.9566,0,U,26931,999,28881,.8792908E-4,.153E-5,0
SAUDISAT 1C (SO-50),2002-058C,2026-06-05T08:30:32.361408,14.83020071,.00754949,64.5503,165.5947,264.6340,94.6150,0,U,27607,999,26270,.13926976E-3,.1035E-4,0
CUTE-1 (CO-55),2003-031E,2026-06-03T13:11:18.293856,14.24327019,.00086909,98.6736,163.2800,219.4250,140.6297,0,U,27844,999,18973,.16425086E-3,.336E-5,0
CUBESAT XI-IV (CO-57),2003-031J,2026-06-05T11:58:40.543104,14.23614506,.00084109,98.6767,164.9270,233.7946,126.2455,0,U,27848,999,18971,.13674905E-3,.268E-5,0
MOZHAETS 4 (RS22),2003-042A,2026-06-06T05:10:59.272320,14.73446176,.0010299,98.3469,341.2648,308.9042,138.6359,0,U,27939,999,21393,.11581E-3,.698E-5,0
CUBESAT XI-V,2005-043F,2026-06-05T09:01:24.008448,14.72598573,.00129811,98.2974,311.7509,240.3240,119.6675,0,U,28895,999,10001,.2489675E-3,.1533E-4,0
CUTE-1.7+APD II (CO-65),2008-021C,2026-06-05T18:43:19.577280,15.09339359,.0010515,97.8271,137.9628,72.1475,288.0899,0,U,32785,999,98347,.40529E-3,.6409E-4,0
SEEDS II (CO-66),2008-021J,2026-06-05T10:45:26.308224,15.32333038,.00028141,97.7518,153.7894,37.2994,322.8442,0,U,32791,999,98549,.61157616E-3,.19038E-3,0
YUBILEINY (RS30),2008-025A,2026-06-06T01:45:04.595040,12.43178929,.0019332,82.5044,2.3550,338.7958,21.2319,0,U,32953,999,81831,.15943E-3,.32E-6,0
KKS-1 (KISEKI),2009-002H,2026-06-05T20:30:46.927584,14.83095030,.0007267,98.1193,79.1174,337.6889,22.4007,0,U,33499,999,93451,.20914E-3,.1648E-4,0
SWISSCUBE,2009-051B,2026-06-05T11:15:38.778912,14.62458715,.00054307,98.4043,64.1532,246.3597,113.7034,0,U,35932,999,88744,.23506342E-3,.1141E-4,0
BEESAT-1,2009-051C,2026-06-05T12:59:02.832000,14.61701276,.00039028,98.3972,63.8860,263.9063,96.1693,0,U,35933,999,88748,.20332174E-3,.964E-5,0
ITUPSAT1,2009-051E,2026-06-04T16:47:20.224032,14.60421767,.0006134,98.4056,62.2366,280.9538,79.0971,0,U,35935,999,88691,.20796E-3,.958E-5,0
XIWANG-1 (HOPE-1),2009-072B,2026-06-06T03:33:08.114976,13.16440319,.0006772,100.4028,111.1572,259.6531,100.3818,0,U,36122,999,79155,.10795E-2,.368E-5,0
O/OREOS (USA 219),2010-062C,2026-06-05T21:04:28.195968,14.93695134,.0012371,71.9702,105.9546,87.8701,272.3886,0,U,37224,999,11495,.28689E-3,.2979E-4,0
JUGNU,2011-058B,2026-06-05T23:06:44.998848,14.13773850,.0018509,19.9622,16.6157,312.5013,261.4793,0,U,37839,999,75743,.97396E-4,.454E-5,0
SRMSAT,2011-058D,2026-06-05T15:30:37.949184,14.11573181,.0011943,19.9704,129.3229,77.5338,79.4380,0,U,37841,999,75618,.60191484E-4,.376E-5,0
STRAND-1,2013-009E,2026-06-05T11:58:13.513728,14.37156205,.00073916,98.3919,337.0211,265.4490,94.5853,0,U,39090,999,69538,.11582659E-3,.302E-5,0
ZACUBE-1 (TSHEPISOSAT),2013-066B,2026-06-05T21:00:56.432160,15.01114956,.0039938,97.8104,119.1515,287.6296,72.0568,0,U,39417,999,67903,.4052E-3,.5212E-4,0
GOMX-1,2013-066Q,2026-06-06T03:42:41.584608,14.69417142,.0130051,97.6488,358.3129,112.5655,248.9374,0,U,39430,999,66829,.34023E-3,.2243E-4,0
